SL-16 R/B               
1 26070U 00006B   22063.09273924 -.00000182  00000+0 -68456-4 0  9995
2 26070  71.0029 300.6318 0019017 256.0509 103.8499 14.15481491141000
MTI                     
1 26102U 00014A   22063.54345847  .00069073  00000+0  44772-3 0  9990
2 26102  97.4597 350.7466 0007837  72.7411 287.4710 15.75784810222058
TITAN 4B R/B            
1 26474U 00047B   22063.58607469  .00000941  00000+0  90622-4 0  9998
2 26474  67.9938 154.4580 0059756 233.1946 126.3706 14.96483845172753
ENVISAT                 
1 27386U 02009A   22063.54267573  .00000087  00000+0  42137-4 0  9994
2 27386  98.1743  49.6241 0001264  91.0458  16.8241 14.38083135 48387
IDEFIX & ARIANE 42P R/B 
1 27422U 02021B   22063.44742530  .00000099  00000+0  55454-4 0  9998
2 27422  98.4380  12.6671 0011998 181.0929 179.0229 14.29367254 34451
AQUA                    
1 27424U 02022A   22063.59600977  .00000317  00000+0  80411-4 0  9999
2 27424  98.2377   6.5531 0001083 108.3645  64.4291 14.57154401 54913
CZ-4B R/B               
1 27432U 02024C   22063.61078750 -.00000007  00000+0  20146-4 0  9997
2 27432  99.0725  87.1815 0049946 211.7919 255.6717 14.14126725 22004
MIDORI II (ADEOS-II)    
1 27597U 02056A   22063.55300309  .00000115  00000+0  64460-4 0  9991
2 27597  98.5962   9.0664 0001064  29.2449 330.8791 14.27562724  1009
H-2A R/B                
1 27601U 02056E   22063.61872949  .00000011  00000+0  18729-4 0  9990
2 27601  98.1802  76.2156 0071424 213.2565 255.0427 14.32036360  4170
CZ-4B R/B               
1 28059U 03049C   22063.40939071  .00000187  00000+0  56588-4 0  9997
2 28059  98.5127 358.6186 0050662  29.4829 330.9206 14.52720467973569
CZ-2C R/B               
1 28222U 04012C   22063.53145892  .00002822  00000+0  16560-3 0  9997
2 28222  97.7625  42.5675 0047262  53.1042  61.4292 15.11668734980372
SL-16 R/B               
1 28353U 04021B   22063.46267468  .00000149  00000+0  10303-3 0  9997
2 28353  71.0008  68.4845 0002914 117.5674 242.5744 14.14261707915502
CZ-4B R/B               
1 28415U 04035C   22063.53440381  .00001609  00000+0  10691-3 0  9998
2 28415  97.5318 106.2157 0051209  20.4044 339.9214 15.07562747957789
CZ-2C R/B               
1 28480U 04046B   22063.58005639 -.00000009  00000+0  11529-4 0  9996
2 28480  98.0589  59.6458 0141918 172.4880 297.9889 14.25793216899495
ARIANE 5 R/B            
1 28499U 04049H   22063.55841947  .00000265  00000+0  39609-4 0  9998
2 28499  98.0841 179.4570 0092782  53.8525 317.3863 14.80268049928566
CZ-2D R/B               
1 28738U 05024B   22063.54752723  .00001431  00000+0  84395-4 0  9998
2 28738  97.3551  75.3241 0011791 172.8569 187.2832 15.13063081915889
SUZAKU (ASTRO-EII)      
1 28773U 05025A   22063.59974427  .00004170  00000+0  18594-3 0  9990
2 28773  31.3796 266.7818 0004611  22.3810 337.7038 15.19734432919058
ALOS (DAICHI)           
1 28931U 06002A   22063.46890132  .00000399  00000+0  86503-4 0  9993
2 28931  97.9218  32.3368 0000680  20.8172 339.3060 14.63013289859070
H-2A R/B                
1 28932U 06002B   22063.61465050  .00001285  00000+0  12067-3 0  9996
2 28932  98.3059 100.3355 0088682  75.9768  37.1480 14.93024469874397
AKARI (ASTRO-F)         
1 28939U 06005A   22063.43814330  .00011624  00000+0  25380-3 0  9995
2 28939  98.2092 123.4810 0077287 289.2791  70.0105 15.41211431876884
RESURS-DK 1             
1 29228U 06021A   22063.33812704  .00000824  00000+0  68507-4 0  9996
2 29228  69.9358  36.8426 0007238 242.2195 117.8232 15.02949971866583
GENESIS 1               
1 29252U 06029A   22063.33800869  .00003423  00000+0  16203-3 0  9993
2 29252  64.5224  56.0288 0060559 277.9109  81.5144 15.19660769862991
CZ-4B R/B               
1 29507U 06046C   22063.58301007  .00000158  00000+0  16901-4 0  9990
2 29507  97.7348  94.0937 0047763 216.4239 143.3733 15.01336729839134
CZ-2C R/B               
1 31114U 07010B   22063.52207563  .00000130  00000+0  79554-4 0  9998
2 31114  98.2329 243.9505 0058684 243.5816 115.9332 14.19399029771672
COSMO-SKYMED 1          
1 31598U 07023A   22063.49047416  .00000528  00000+0  72878-4 0  9996
2 31598  97.8847 248.6623 0001314  89.1270 271.0098 14.82160720797414
GENESIS 2               
1 31789U 07028A   22063.53348160  .00002171  00000+0  11281-3 0  9994
2 31789  64.4956  98.3059 0035704 331.2872  28.6285 15.18599033809960
COSMOS 2428             
1 31792U 07029A   22063.32753724  .00000309  00000+0  19297-3 0  9998
2 31792  70.9349  40.3020 0010042 223.4215 136.6116 14.12477390757002
SL-16 R/B               
1 31793U 07029B   22063.60458929 -.00000287  00000+0 -12494-3 0  9998
2 31793  70.9783  13.1230 0002335 276.3867 256.3912 14.14464363758038
KORONAS-FOTON           
1 33504U 09003A   22063.18055602  .00002028  00000+0  10197-3 0  9999
2 33504  82.4432 320.8779 0017084 277.8822  82.0471 15.16576302722001
H-2A R/B                
1 38341U 12025E   22063.53411297  .00000485  00000+0  63672-4 0  9998
2 38341  98.5171 271.7662 0055616  25.1514 335.2388 14.84464183530085
CUSAT 2 & FALCON 9 R/B  
1 39271U 13055G   22063.42517378  .00015603  00000+0  34741-3 0  9992
2 39271  80.9623 310.3411 0548518  78.7590 287.4717 14.58102484441442
CZ-2C R/B               
1 39364U 13059B   22063.15583010  .00004811  00000+0  16553-3 0  9995
2 39364  97.1759 120.1001 0044220 350.4879   9.5519 15.29587430464106
SL-4 R/B                
1 39679U 14021B   22063.48856578  .00003028  00000+0  15863-3 0  9994
2 39679  51.6147  84.4998 0167272 313.7306  44.9915 15.07807215433277
ALOS-2                  
1 39766U 14029A   22063.57397357 -.00000053  00000+0 -23155-6 0  9997
2 39766  97.9201 162.2135 0001608  95.2106 264.9300 14.79470887420127
CZ-2C R/B               
1 40306U 14071B   22063.44283313  .00023547  00000+0  35828-3 0  9996
2 40306  97.4097  32.7536 0014028  51.3930 308.8577 15.54418198410541
SL-27 R/B               
1 40354U 14084B   22063.58650582  .00004064  00000+0  92943-4 0  9999
2 40354  74.7394 173.1705 0034797  43.8437 316.5529 15.42481879404429
YAOGAN 29               
1 41038U 15069A   22063.53863593  .00000168  00000+0  28913-4 0  9993
2 41038  98.0540  63.2703 0002049  62.0877 298.0532 14.80586960338763
ASTRO-H (HITOMI)        
1 41337U 16012A   22063.53941879  .00000915  00000+0  66662-4 0  9991
2 41337  31.0064   5.5127 0012133 130.4352 229.7343 14.99110129331365
HXMT (HUIYAN)           
1 42758U 17034A   22063.51079446  .00001522  00000+0  10600-3 0  9999
2 42758  43.0159 205.1903 0009044 335.5071 106.6559 15.09774348260313
CZ-2C R/B               
1 43521U 18054D   22063.33688669  .00002093  00000+0  11086-3 0  9997
2 43521  35.1533 286.0497 0080931 234.0869 125.2313 15.12368842203750
AEOLUS                  
1 43600U 18066A   22063.56121443  .00078087  00000+0  29734-3 0  9990
2 43600  96.7114  71.2368 0006812  82.3499 277.8548 15.87320047204499
SAOCOM 1A               
1 43641U 18076A   22063.43134068  .00000175  00000+0  28506-4 0  9999
2 43641  97.8870 251.6238 0001401  79.8598 280.2778 14.82152136184176
SAOCOM 1B               
1 46265U 20059A   22063.46251093 -.00000662  00000+0 -76692-4 0  9991
2 46265  97.8870 250.7239 0001397  80.4867 279.6558 14.82143717 81576
TIANHE                  
1 48274U 21035A   22062.95946019  .00008746  00000+0  10013-3 0  9993
2 48274  41.4689 140.0653 0004238  67.7533 112.4077 15.62242208 48316
